#dP2025  2  8  0  0  0.00000000      96 __u+U IGS20 FIT  IAC
## 2352 518400.00000000   900.00000000 60714 0.0000000000000
+   52   G01G03G04G05G06G07G08G09G10G11G12G13G14G15G16G17G18
+        G19G20G21G22G23G24G25G26G27G28G29G30G31G32R01R02R03
+        R04R05R07R08R09R11R12R14R15R16R17R18R19R20R21R22R24
+        R26  0  0  0  0  0  0  0  0  0  0  0  0  0  0  0  0
+          0  0  0  0  0  0  0  0  0  0  0  0  0  0  0  0  0
++         6  6  6  6  8  7  6  7  6  6  6  7  6  6  6  6  7
++         6  6  7  6  6  6  5  6  7  6  5  7  6  6  7  6  5
++         7  6  6  7  6  5  6  7  7  7  9  6  8  8  7  7  7
++         7  0  0  0  0  0  0  0  0  0  0  0  0  0  0  0  0
++         0  0  0  0  0  0  0  0  0  0  0  0  0  0  0  0  0
%c M  cc GPS ccc cccc cccc cccc cccc ccccc ccccc ccccc ccccc
%c cc cc ccc ccc cccc cccc cccc cccc ccccc ccccc ccccc ccccc
%f  0.0000000  0.000000000  0.00000000000  0.000000000000000
%f  0.0000000  0.000000000  0.00000000000  0.000000000000000
%i    0    0    0    0      0      0      0      0         0
%i    0    0    0    0      0      0      0      0         0
/* INFORMATION & ANALYSIS CENTER (IAC)      ULTRA-RAPID DATA
/* S/V CLOCKS ARE ALIGNED TO GNSS TIME                      
/* G:C1WC2W R:C1PC2P E:C1XC5X C:C2IC6I J:C1CC2S             
/* PCV:IGS20_2350 OL/AL:FES2004  NONE     YN ORB:CoN CLK:CoN
*  2025 02 08  3  0  0.00000000
PG01   2195.604583  15075.630106 -21752.106359    106.661249
PG03   9853.790520  21800.416074 -11826.142365    660.045008
PG04   1198.855937  23427.206340  12329.590463    523.988438
PG05   2479.114718 -16671.613161  20337.056210   -201.335170
PG06  25938.006448  -6041.900807    294.184538   -173.099983
PG07  17994.006984   8930.953254  18138.813690    -13.629208
PG08  -5138.879717  25751.220113  -1748.339391    476.260245
PG09   8930.129531  16734.477886  18476.257895    559.068905
PG10 -20307.452879  -6103.223453 -15962.428468   -309.675514
PG11  20898.306921 -11977.646623  11166.214008   -748.422697
PG12  -6405.331688 -22258.804287 -13328.858024   -568.991097
PG13  13651.697269 -22062.864041   4802.328919    695.841849
PG14  21303.180811   9073.706091 -13180.261474    594.650103
PG15   1303.362686 -26364.169166  -2676.374475    260.946467
PG16  -9483.971648  12018.397071  21301.752667    -58.312854
PG17  15235.446569   1267.249083 -21337.052696    436.298217
PG18 -19679.893953  -7085.540897  16535.389502   -654.239497
PG19  17194.841115  -8731.972824 -18198.861109    595.522723
PG20  13601.906012  -8598.471766  21200.801774    366.463973
PG21  -6652.705465  16408.376683 -19050.521214    101.846097
PG22  18444.613666   2344.179610 -18467.864200    -96.056598
PG23 -20423.733715 -16752.556800  -3740.306914    419.399945
PG24   1315.191670 -16848.622931 -20886.020049   -454.689658
PG25 -17072.324793 -20340.233603  -3168.910107    495.382089
PG26 -17454.866649   4089.981970  19520.191206    -81.759352
PG27 -12452.697366  21312.367099   8879.772551    -31.851394
PG28 -25865.071580   5713.236397  -2010.214763   -554.593307
PG29  -7208.018806 -17366.783845  18660.879394   -539.757465
PG30  25203.962863    530.540518   8944.440695   -221.145176
PG31 -23997.575680   9853.900369   6266.108549   -216.024511
PG32 -16016.485911   4821.791660 -20348.732045   -526.100172
PR01 -10198.675172 -14118.571979 -18625.196921    113.986599
PR02 -10405.145236   3900.962710 -22904.538188    -37.627765
PR03  -5109.075996  20717.000536 -13878.595686    116.426407
PR04   2452.208552  25279.141916   2317.234727    276.231518
PR05   8829.453639  16514.521809  17323.505780    145.001671
PR07   5064.368665 -20930.363216  13760.048584    100.374658
PR08  -2773.409548 -25253.957391  -2431.812912     -6.197793
PR09  21750.348579   2580.279188 -13131.207663    236.718677
PR11  -7017.411930 -13972.869184 -20142.421803     -7.331270
PR12 -21698.700281 -12750.039158  -4181.510835     50.537646
PR14  -9036.409971   7850.022271  22527.265452     27.722427
PR15   8711.759374  14472.223018  19127.501199     71.406065
PR16  21689.449391  12734.804268   4362.081725     33.131502
PR17 -17466.163617  16403.573205  -8788.896317    164.267314
PR18  -4352.039246  14032.220911 -20818.605472    185.941384
PR19   9318.209315   6372.907219 -22871.012915    -39.878634
PR20  22152.259412  -8112.084632  -9749.312102   -125.582676
PR21  18384.087524 -15991.146849   7514.255570   -174.937225
PR22   3216.991774 -13817.344397  21230.698530    -59.643031
PR24 -21882.312830   9307.960647   9264.420249    -91.562375
PR26  -1998.916375 -25415.179809   -406.672281   -130.987368
*  2025 02 08  3 15  0.00000000
PG01   -239.933855  15533.835066 -21537.120132    106.683856
PG03   8727.274158  20869.130486 -14178.897486    660.050423
PG04    634.268936  24584.962786   9852.157115    523.993462
PG05   4328.321077 -15122.668674  21217.779819   -201.336121
PG06  25844.510932  -5848.669754  -2605.548910   -173.122780
PG07  16054.051870   9589.104039  19570.299014    -13.629321
PG08  -5460.410213  25704.717077   1111.287223    476.266463
PG09   8325.089329  18686.115145  16815.976716    559.081484
PG10 -21452.387911  -7400.700933 -13832.717537   -309.689194
PG11  22045.685958 -12019.284475   8608.716549   -748.420839
PG12  -5203.822115 -21183.900812 -15474.426131   -568.993155
PG13  13581.048816 -21290.757803   7578.834117    695.842957
PG14  22098.288200  10222.597603 -10853.380058    594.656246
PG15   1639.114622 -26424.720251    137.107078    260.950367
PG16 -11160.418610  10122.907538  21510.311083    -58.304554
PG17  14472.233157   3689.056699 -21562.707781    436.282043
PG18 -17797.631911  -7697.733807  18284.579157   -654.237588
PG19  16578.847054  -6664.725939 -19639.104484    595.526755
PG20  15516.523525  -7209.483522  20373.686589    366.464073
PG21  -8775.352700  17013.904254 -17529.980850    101.845520
PG22  19675.713356   4053.883130 -16835.592923    -96.057986
PG23 -20500.192290 -17061.995108   -871.150668    419.406514
PG24   3462.693616 -17568.219058 -19972.332706   -454.685340
PG25 -16546.575700 -20203.602732  -5922.078863    495.381458
PG26 -19065.289733   2588.025366  18277.342774    -81.774219
PG27 -12424.000212  20066.601025  11416.433883    -31.850833
PG28 -25567.135286   5358.586879  -4831.679329   -554.601111
PG29  -6415.077607 -19264.834843  17007.999049   -539.754255
PG30  24179.730370   1096.372525  11399.607139   -221.137406
PG31 -24622.275623   9763.193569   3516.784031   -216.023778
PG32 -15515.371594   2446.284892 -21154.271541   -526.093243
PR01 -10575.874925 -16260.349894 -16552.597081    113.987982
PR02 -10647.942971   1057.662380 -23105.080412    -37.626850
PR03  -5172.984662  18838.564770 -16314.228394    116.426441
PR04   2642.940800  25345.180982   -912.093825    276.232885
PR05   9129.946705  18491.002929  15012.960284    145.002410
PR07   5112.339245 -19086.292589  16209.208945    100.376361
PR08  -2954.587874 -25346.549764    785.902372     -6.197905
PR09  23124.570575   3053.032434 -10408.967316    236.720661
PR11  -4687.152676 -12884.471028 -21500.366644     -7.334282
PR12 -21102.623068 -12344.756960  -7283.493298     50.538162
PR14 -11550.318624   6792.299920  21705.599342     27.722302
PR15   6495.182219  13415.249902  20713.625685     71.406160
PR16  21083.051329  12303.309730   7466.303704     33.132188
PR17 -18094.108357  17068.537618  -5724.264429    164.270502
PR18  -6334.638707  15520.476288 -19186.700755    185.943205
PR19   6907.847141   7895.169536 -23247.899043    -39.879072
PR20  20885.558186  -7529.081253 -12591.008399   -125.583550
PR21  18879.300926 -16566.733681   4386.109398   -174.940400
PR22   5285.376524 -15264.265944  19774.992613    -59.644620
PR24 -20734.692494   8650.967382  12108.786439    -91.563927
PR26  -2151.430451 -25252.925020   2813.061418   -130.987004
EOF
